GLOBALSTAR M057         
1 25943U 99058A   25178.80454874 -.00000048  00000+0  40529-3 0  9992
2 25943  52.0002 318.0733 0003045  52.7929 307.3198 12.24823269168235
GLOBALSTAR M059         
1 25944U 99058B   25178.77865348 -.00000100  00000+0 -17064-3 0  9999
2 25944  51.9985 178.5196 0000724 314.9693 216.5523 11.99980022575314
GLOBALSTAR M056         
1 25945U 99058C   25178.30523767 -.00000117  00000+0 -34508-3 0  9995
2 25945  51.9931 181.5002 0001071 210.9739 251.3427 12.04781838163840
GLOBALSTAR M031         
1 25946U 99058D   25178.85362294  .00000061  00000+0  15401-2 0  9998
2 25946  51.9970  71.6943 0000797 174.5998 262.0293 12.16037498165844
GLOBALSTAR M039         
1 25961U 99062A   25178.85427591 -.00000095  00000+0  51620-4 0  9995
2 25961  51.9836 236.2283 0002405  16.4434 343.6510 12.62328866181596
GLOBALSTAR M034         
1 25962U 99062B   25178.70053449 -.00000130  00000+0 -78320-3 0  9993
2 25962  51.9894 344.0587 0014754  63.2300 310.2297 11.79445852139630
GLOBALSTAR M029         
1 25963U 99062C   25178.93099875 -.00000043  00000+0  53870-3 0  9997
2 25963  51.9814  66.1341 0002644 123.4302 303.7064 11.99898194170412
GLOBALSTAR M061         
1 25964U 99062D   25178.68121293 -.00000084  00000+0 -57970-4 0  9992
2 25964  51.9761 168.2828 0006222 342.3556 188.8332 11.76776442122410
